IRIDIUM 36 [-]          
1 24967U 97056C   24073.57032485  .00000700  00000+0  23138-3 0  9991
2 24967  86.4026   6.4144 0002377  83.9289 276.2179 14.36672325386069
IRIDIUM 39 [-]          
1 25042U 97069D   24073.91272892  .00001025  00000+0  27140-3 0  9994
2 25042  86.3906  48.3031 0020079  47.2442 313.0447 14.47746546382336
IRIDIUM 38 [-]          
1 25043U 97069E   24073.95574023  .00000624  00000+0  20361-3 0  9992
2 25043  86.3913  66.6677 0003162 124.2051 235.9447 14.37108772379835
IRIDIUM 42 [-]          
1 25077U 97077A   24073.96592672  .00000560  00000+0  18846-3 0  9993
2 25077  86.3912  72.2752 0002320 105.6024 254.5428 14.35421319375156
IRIDIUM 44 [-]          
1 25078U 97077B   24073.90159393  .00000684  00000+0  21437-3 0  9994
2 25078  86.3930  55.4512 0004118  93.8256 266.3414 14.39244629377470
IRIDIUM 45 [-]          
1 25104U 97082A   24073.93571642  .00014073  00000+0  84575-3 0  9997
2 25104  86.3691 266.8694 0166555 224.9737 133.7908 14.99777608382563
IRIDIUM 24 [-]          
1 25105U 97082B   24073.48205270  .00000463  00000+0  13784-3 0  9991
2 25105  86.3855 275.4024 0012368 150.1606 210.0301 14.41014309376845
IRIDIUM 51 [-]          
1 25262U 98018A   24073.85250500  .00016289  00000+0  81623-3 0  9992
2 25262  86.3870 277.0129 0153196 172.3931 187.9684 15.07455310377034
